NORAD_CAT_ID,OBJECT_NAME,OBJECT_TYPE,EPOCH,MEAN_MOTION,ECCENTRICITY,INCLINATION,RA_OF_ASC_NODE,ARG_OF_PERICENTER,MEAN_ANOMALY,BSTAR,MEAN_MOTION_DOT,MEAN_MOTION_DDOT,TLE_LINE0,TLE_LINE1,TLE_LINE2,SEMIMAJOR_AXIS,PERIOD,APOGEE,PERIGEE,DECAYED
51790.0,STARLINK-3631,PAYLOAD,2023-08-06 04:53:33,15.08834433,0.0001397,53.2182,278.0622,113.8879,246.2259,6.1503e-05,6.91e-06,0.0,0 STARLINK-3631,1 51790U 22017Y   23218.20386232  .00000691  00000-0  61503-4 0  9991,2 51790  53.2182 278.0622 0001397 113.8879 246.2259 15.08834433 81085,6917.897,95.438,540.729,538.796,0.0
51790.0,STARLINK-3631,PAYLOAD,2023-08-07 09:30:30,15.08834791,0.0001268,53.2185,272.7109,105.8787,254.2345,-7.81e-05,-1.53e-05,0.0,0 STARLINK-3631,1 51790U 22017Y   23219.39619052 -.00001530  00000-0 -78100-4 0  9997,2 51790  53.2185 272.7109 0001268 105.8787 254.2345 15.08834791 81267,6917.896,95.438,540.639,538.884,0.0
51790.0,STARLINK-3631,PAYLOAD,2023-08-08 09:21:16,15.08844168,0.0001078,53.2173,268.2496,94.2005,265.9111,0.00012211,1.656e-05,0.0,0 STARLINK-3631,1 51790U 22017Y   23220.38977945  .00001656  00000-0  12211-3 0  9993,2 51790  53.2173 268.2496 0001078  94.2005 265.9111 15.08844168 81412,6917.868,95.437,540.478,538.987,0.0
51790.0,STARLINK-3631,PAYLOAD,2023-08-09 02:50:32,15.08831862,0.0001151,53.2167,264.9787,81.3032,278.809,6.6295e-05,7.67e-06,0.0,0 STARLINK-3631,1 51790U 22017Y   23221.11843018  .00000767  00000-0  66295-4 0  9992,2 51790  53.2167 264.9787 0001151  81.3032 278.8090 15.08831862 81528,6917.905,95.438,540.567,538.974,0.0
51790.0,STARLINK-3631,PAYLOAD,2023-08-10 02:41:19,15.08842072,9.98e-05,53.2161,260.5171,79.2984,280.812,4.0013e-05,3.49e-06,0.0,0 STARLINK-3631,1 51790U 22017Y   23222.11202620  .00000349  00000-0  40013-4 0  9997,2 51790  53.2161 260.5171 0000998  79.2984 280.8120 15.08842072 81679,6917.874,95.437,540.429,539.049,0.0
51790.0,STARLINK-3631,PAYLOAD,2023-08-10 12:13:37,15.08849491,0.0001055,53.2162,258.7325,87.0036,273.1077,4.0109e-05,3.51e-06,0.0,0 STARLINK-3631,1 51790U 22017Y   23222.50945994  .00000351  00000-0  40109-4 0  9997,2 51790  53.2162 258.7325 0001055  87.0036 273.1077 15.08849491 81735,6917.851,95.437,540.446,538.987,0.0
51790.0,STARLINK-3631,PAYLOAD,2023-08-11 02:32:06,15.08835349,0.0001094,53.2152,256.0558,76.5143,283.5971,5.3141e-05,5.58e-06,0.0,0 STARLINK-3631,1 51790U 22017Y   23223.10562775  .00000558  00000-0  53141-4 0  9995,2 51790  53.2152 256.0558 0001094  76.5143 283.5971 15.08835349 81823,6917.895,95.438,540.516,539.003,0.0
51790.0,STARLINK-3631,PAYLOAD,2023-08-12 07:09:02,15.08839113,0.000114,53.2169,250.7058,72.9441,287.1676,-1.1412e-05,-4.69e-06,0.0,0 STARLINK-3631,1 51790U 22017Y   23224.29794902 -.00000469  00000-0 -11412-4 0  9993,2 51790  53.2169 250.7058 0001140  72.9441 287.1676 15.08839113 82006,6917.883,95.438,540.537,538.959,0.0
51790.0,STARLINK-3631,PAYLOAD,2023-08-13 18:07:31,15.08834761,0.0001147,53.2164,244.162,73.4091,286.7027,7.1732e-05,8.54e-06,0.0,0 STARLINK-3631,1 51790U 22017Y   23225.75523034  .00000854  00000-0  71732-4 0  9998,2 51790  53.2164 244.1620 0001147  73.4091 286.7027 15.08834761 82220,6917.896,95.438,540.555,538.968,0.0
51790.0,STARLINK-3631,PAYLOAD,2023-08-15 00:19:51,15.08839555,0.0001258,53.2164,238.5112,82.9944,277.1191,3.4923e-05,2.68e-06,0.0,0 STARLINK-3631,1 51790U 22017Y   23227.01379233  .00000268  00000-0  34923-4 0  9999,2 51790  53.2164 238.5112 0001258  82.9944 277.1191 15.08839555 82411,6917.882,95.438,540.617,538.876,0.0
51790.0,STARLINK-3631,PAYLOAD,2023-08-16 01:46:01,15.0883718,0.0001244,53.2166,233.7536,84.5776,275.5358,8.2181e-05,1.02e-05,0.0,0 STARLINK-3631,1 51790U 22017Y   23228.07363284  .00001020  00000-0  82181-4 0  9991,2 51790  53.2166 233.7536 0001244  84.5776 275.5358 15.08837180 82572,6917.889,95.438,540.615,538.893,0.0
51790.0,STARLINK-3631,PAYLOAD,2023-08-17 17:30:40,15.08841561,0.0001265,53.2162,226.32,85.8707,274.2429,3.1136e-05,2.08e-06,0.0,0 STARLINK-3631,1 51790U 22017Y   23229.72963267  .00000208  00000-0  31136-4 0  9992,2 51790  53.2162 226.3200 0001265  85.8707 274.2429 15.08841561 82826,6917.876,95.437,540.616,538.866,0.0
51790.0,STARLINK-3631,PAYLOAD,2023-08-19 04:29:09,15.08837289,0.0001346,53.2161,219.7765,93.1514,266.9633,4.6463e-05,4.52e-06,0.0,0 STARLINK-3631,1 51790U 22017Y   23231.18691484  .00000452  00000-0  46463-4 0  9994,2 51790  53.2161 219.7765 0001346  93.1514 266.9633 15.08837289 83047,6917.889,95.438,540.685,538.823,0.0
51790.0,STARLINK-3631,PAYLOAD,2023-08-20 07:30:42,15.08838872,0.0001334,53.2163,214.7215,94.3284,265.7861,-7.5555e-06,-4.08e-06,0.0,0 STARLINK-3631,1 51790U 22017Y   23232.31299743 -.00000408  00000-0 -75555-5 0  9990,2 51790  53.2163 214.7215 0001334  94.3284 265.7861 15.08838872 83216,6917.884,95.438,540.672,538.826,0.0
51790.0,STARLINK-3631,PAYLOAD,2023-08-21 08:56:52,15.08846094,0.0001312,53.2169,209.965,94.9127,265.2014,6.9622e-05,8.2e-06,0.0,0 STARLINK-3631,1 51790U 22017Y   23233.37283178  .00000820  00000-0  69622-4 0  9995,2 51790  53.2169 209.9650 0001312  94.9127 265.2014 15.08846094 83376,6917.862,95.437,540.634,538.819,0.0
51790.0,STARLINK-3631,PAYLOAD,2023-08-22 04:01:31,15.08833904,0.0001308,53.2166,206.3961,93.0087,267.1054,1.1396e-05,-1.07e-06,0.0,0 STARLINK-3631,1 51790U 22017Y   23234.16772383 -.00000107  00000-0  11396-4 0  9998,2 51790  53.2166 206.3961 0001308  93.0087 267.1054 15.08833904 83493,6917.899,95.438,540.669,538.859,0.0
51790.0,STARLINK-3631,PAYLOAD,2023-08-23 07:03:04,15.08843779,0.0001299,53.2164,201.3402,87.3333,272.7808,2.0501e-05,3.8e-07,0.0,0 STARLINK-3631,1 51790U 22017Y   23235.29379952  .00000038  00000-0  20501-4 0  9998,2 51790  53.2164 201.3402 0001299  87.3333 272.7808 15.08843779 83664,6917.869,95.437,540.632,538.835,0.0
51790.0,STARLINK-3631,PAYLOAD,2023-08-24 06:53:51,15.08838315,0.0001511,53.2173,196.8798,80.6676,279.4487,6.9282e-05,8.15e-06,0.0,0 STARLINK-3631,1 51790U 22017Y   23236.28740446  .00000815  00000-0  69282-4 0  9990,2 51790  53.2173 196.8798 0001511  80.6676 279.4487 15.08838315 83817,6917.886,95.438,540.796,538.705,0.0
51790.0,STARLINK-3631,PAYLOAD,2023-08-25 01:58:28,15.08845212,0.0001504,53.2171,193.3112,83.3301,276.7863,8.056e-05,9.95e-06,0.0,0 STARLINK-3631,1 51790U 22017Y   23237.08227895  .00000995  00000-0  80560-4 0  9998,2 51790  53.2171 193.3112 0001504  83.3301 276.7863 15.08845212 83939,6917.864,95.437,540.77,538.689,0.0
51790.0,STARLINK-3631,PAYLOAD,2023-08-25 06:44:38,15.08848455,0.0001559,53.2174,192.419,81.513,278.6039,0.00010601,1.4e-05,0.0,0 STARLINK-3631,1 51790U 22017Y   23237.28099567  .00001400  00000-0  10601-3 0  9993,2 51790  53.2174 192.4190 0001559  81.5130 278.6039 15.08848455 83969,6917.855,95.437,540.798,538.641,0.0
51790.0,STARLINK-3631,PAYLOAD,2023-08-26 00:13:52,15.088418,0.0001356,53.2173,189.1446,116.1008,244.0124,3.5771e-06,-2.31e-06,0.0,0 STARLINK-3631,1 51790U 22017Y   23238.00964047 -.00000231  00000-0  35771-5 0  9997,2 51790  53.2173 189.1446 0001356 116.1008 244.0124 15.08841800 84071,6917.875,95.437,540.678,538.802,0.0
51790.0,STARLINK-3631,PAYLOAD,2023-08-26 06:35:25,15.0884192,0.0001296,53.2174,187.9562,111.0633,249.0497,5.2003e-06,-2.05e-06,0.0,0 STARLINK-3631,1 51790U 22017Y   23238.27460033 -.00000205  00000-0  52003-5 0  9990,2 51790  53.2174 187.9562 0001296 111.0633 249.0497 15.08841920 84114,6917.875,95.437,540.636,538.843,0.0
51790.0,STARLINK-3631,PAYLOAD,2023-08-26 20:53:53,15.08848869,0.0001592,53.2174,185.2786,114.3146,245.8013,-0.00015084,-2.688e-05,0.0,0 STARLINK-3631,1 51790U 22017Y   23238.87076344 -.00002688  00000-0 -15084-3 0  9998,2 51790  53.2174 185.2786 0001592 114.3146 245.8013 15.08848869 84204,6917.853,95.437,540.82,538.617,0.0
51790.0,STARLINK-3631,PAYLOAD,2023-08-27 01:40:03,15.0884561,0.0001524,53.2171,184.3867,117.7973,242.3174,-5.6287e-05,-1.184e-05,0.0,0 STARLINK-3631,1 51790U 22017Y   23239.06948020 -.00001184  00000-0 -56287-4 0  9990,2 51790  53.2171 184.3867 0001524 117.7973 242.3174 15.08845610 84235,6917.863,95.437,540.783,538.674,0.0
51790.0,STARLINK-3631,PAYLOAD,2023-08-27 04:50:49,15.08847047,0.0001441,53.2181,183.7939,116.2954,243.8186,-2.8801e-05,-7.46e-06,0.0,0 STARLINK-3631,1 51790U 22017Y   23239.20195816 -.00000746  00000-0 -28801-4 0  9997,2 51790  53.2181 183.7939 0001441 116.2954 243.8186 15.08847047 84257,6917.859,95.437,540.721,538.727,0.0
51790.0,STARLINK-3631,PAYLOAD,2023-08-28 03:06:13,15.08840606,0.00014,53.2186,179.637,105.6224,254.4923,4.3735e-05,4.08e-06,0.0,0 STARLINK-3631,1 51790U 22017Y   23240.12932229  .00000408  00000-0  43735-4 0  9993,2 51790  53.2186 179.6370 0001400 105.6224 254.4923 15.08840606 84398,6917.879,95.438,540.712,538.775,0.0
51790.0,STARLINK-3631,PAYLOAD,2023-08-28 12:38:32,15.08841822,0.0001197,53.2175,177.8495,90.6299,269.483,2.8323e-05,1.63e-06,0.0,0 STARLINK-3631,1 51790U 22017Y   23240.52676135  .00000163  00000-0  28323-4 0  9992,2 51790  53.2175 177.8495 0001197  90.6299 269.4830 15.08841822 84453,6917.875,95.437,540.568,538.912,0.0
51790.0,STARLINK-3631,PAYLOAD,2023-08-29 01:21:38,15.0883152,0.0001444,53.218,175.4714,91.4272,268.6886,-1.5363e-05,-5.32e-06,0.0,0 STARLINK-3631,1 51790U 22017Y   23241.05669242 -.00000532  00000-0 -15363-4 0  9994,2 51790  53.2180 175.4714 0001444  91.4272 268.6886 15.08831520 84537,6917.906,95.438,540.77,538.772,0.0
51790.0,STARLINK-3631,PAYLOAD,2023-08-29 12:29:20,15.08835309,0.0001446,53.2182,173.392,99.9885,260.127,1.6667e-05,-2.3e-07,0.0,0 STARLINK-3631,1 51790U 22017Y   23241.52037045 -.00000023  00000-0  16667-4 0  9998,2 51790  53.2182 173.3920 0001446  99.9885 260.1270 15.08835309 84601,6917.895,95.438,540.76,538.759,0.0
51790.0,STARLINK-3631,PAYLOAD,2023-08-30 04:23:11,15.08837621,0.0001345,53.2174,170.4166,88.2501,271.8646,-1.5362e-05,-5.32e-06,0.0,0 STARLINK-3631,1 51790U 22017Y   23242.18277340 -.00000532  00000-0 -15362-4 0  9992,2 51790  53.2174 170.4166 0001345  88.2501 271.8646 15.08837621 84702,6917.888,95.438,540.683,538.822,0.0
